{
  "links" : {
    "next" : "https://api.nasa.gov/neo/rest/v1/neo/browse?page=14&size=20&api_key=jqAGvNAwUIBu4fl9FSOjdm3V4F7hIglRzI6pdX9d",
    "prev" : "https://api.nasa.gov/neo/rest/v1/neo/browse?page=12&size=20&api_key=jqAGvNAwUIBu4fl9FSOjdm3V4F7hIglRzI6pdX9d",
    "self" : "https://api.nasa.gov/neo/rest/v1/neo/browse?page=13&size=20&api_key=jqAGvNAwUIBu4fl9FSOjdm3V4F7hIglRzI6pdX9d"
  },
  "page" : {
    "size" : 20,
    "total_elements" : 20750,
    "total_pages" : 1038,
    "number" : 13
  },
  "near_earth_objects" : [ {
    "links" : {
      "self" : "https://api.nasa.gov/neo/rest/v1/neo/3163749?api_key=jqAGvNAwUIBu4fl9FSOjdm3V4F7hIglRzI6pdX9d"
    },
    "neo_reference_id" : "3163749",
    "name" : "(2003 UW5)",
    "designation" : "2003 UW5",
    "nasa_jpl_url" : "http://ssd.jpl.nasa.gov/sbdb.cgi?sstr=3163749",
    "absolute_magnitude_h" : 24.3,
    "estimated_diameter" : {
      "kilometers" : {
        "estimated_diameter_min" : 0.0366906138,
        "estimated_diameter_max" : 0.0820427065
      },
      "meters" : {
        "estimated_diameter_min" : 36.6906137531,
        "estimated_diameter_max" : 82.0427064882
      },
      "miles" : {
        "estimated_diameter_min" : 0.0227984834,
        "estimated_diameter_max" : 0.0509789586
      },
      "feet" : {
        "estimated_diameter_min" : 120.3760332259,
        "estimated_diameter_max" : 269.1689931548
      }
    },
    "is_potentially_hazardous_asteroid" : false,
    "close_approach_data" : [ {
      "close_approach_date" : "2003-11-19",
      "epoch_date_close_approach" : 1069228800000,
      "relative_velocity" : {
        "kilometers_per_second" : "6.8961746385",
        "kilometers_per_hour" : "24826.2286987745",
        "miles_per_hour" : "15426.0530489691"
      },
      "miss_distance" : {
        "astronomical" : "0.0822067249",
        "lunar" : "31.9784164429",
        "kilometers" : "12297951",
        "miles" : "7641592.5"
      },
      "orbiting_body" : "Earth"
    } ],
    "orbital_data" : {
      "orbit_id" : "14",
      "orbit_determination_date" : "2017-04-06 09:13:39",
      "first_observation_date" : "2003-10-18",
      "last_observation_date" : "2003-12-01",
      "data_arc_in_days" : 44,
      "observations_used" : 53,
      "orbit_uncertainty" : "7",
      "minimum_orbit_intersection" : ".0608631",
      "jupiter_tisserand_invariant" : "3.230",
      "epoch_osculation" : "2458600.5",
      "eccentricity" : ".5783776647865804",
      "semi_major_axis" : "2.469562297192173",
      "inclination" : "1.864109760295469",
      "ascending_node_longitude" : "16.70222501897127",
      "orbital_period" : "1417.517424615428",
      "perihelion_distance" : "1.041222622697181",
      "perihelion_argument" : "52.56265822108735",
      "aphelion_distance" : "3.897901971687165",
      "perihelion_time" : "2458648.546050649308",
      "mean_anomaly" : "347.7979783998468",
      "mean_motion" : ".2539651321024628",
      "equinox" : "J2000",
      "orbit_class" : {
        "orbit_class_type" : "AMO",
        "orbit_class_range" : "1.017 AU < q (perihelion) < 1.3 AU",
        "orbit_class_description" : "Near-Earth asteroid orbits similar to that of 1221 Amor"
      }
    },
    "is_sentry_object" : false
  }, {
    "links" : {
      "self" : "https://api.nasa.gov/neo/rest/v1/neo/3163751?api_key=jqAGvNAwUIBu4fl9FSOjdm3V4F7hIglRzI6pdX9d"
    },
    "neo_reference_id" : "3163751",
    "name" : "(2003 UE8)",
    "designation" : "2003 UE8",
    "nasa_jpl_url" : "http://ssd.jpl.nasa.gov/sbdb.cgi?sstr=3163751",
    "absolute_magnitude_h" : 24.9,
    "estimated_diameter" : {
      "kilometers" : {
        "estimated_diameter_min" : 0.0278326768,
        "estimated_diameter_max" : 0.0622357573
      },
      "meters" : {
        "estimated_diameter_min" : 27.8326768072,
        "estimated_diameter_max" : 62.2357573367
      },
      "miles" : {
        "estimated_diameter_min" : 0.0172944182,
        "estimated_diameter_max" : 0.0386714948
      },
      "feet" : {
        "estimated_diameter_min" : 91.3145593761,
        "estimated_diameter_max" : 204.1855621004
      }
    },
    "is_potentially_hazardous_asteroid" : false,
    "close_approach_data" : [ {
      "close_approach_date" : "1949-12-06",
      "epoch_date_close_approach" : -633369600000,
      "relative_velocity" : {
        "kilometers_per_second" : "18.4194250428",
        "kilometers_per_hour" : "66309.9301539565",
        "miles_per_hour" : "41202.4118781626"
      },
      "miss_distance" : {
        "astronomical" : "0.4096160098",
        "lunar" : "159.340637207",
        "kilometers" : "61277684",
        "miles" : "38076188"
      },
      "orbiting_body" : "Earth"
    }, {
      "close_approach_date" : "2003-10-18",
      "epoch_date_close_approach" : 1066460400000,
      "relative_velocity" : {
        "kilometers_per_second" : "6.9361554857",
        "kilometers_per_hour" : "24970.1597484127",
        "miles_per_hour" : "15515.4862058957"
      },
      "miss_distance" : {
        "astronomical" : "0.0325768268",
        "lunar" : "12.6723852158",
        "kilometers" : "4873424",
        "miles" : "3028205.25"
      },
      "orbiting_body" : "Earth"
    }, {
      "close_approach_date" : "2011-12-10",
      "epoch_date_close_approach" : 1323504000000,
      "relative_velocity" : {
        "kilometers_per_second" : "19.9173221012",
        "kilometers_per_hour" : "71702.3595642563",
        "miles_per_hour" : "44553.0578081347"
      },
      "miss_distance" : {
        "astronomical" : "0.4594274186",
        "lunar" : "178.7172698975",
        "kilometers" : "68729360",
        "miles" : "42706448"
      },
      "orbiting_body" : "Earth"
    } ],
    "orbital_data" : {
      "orbit_id" : "9",
      "orbit_determination_date" : "2017-04-06 09:13:38",
      "first_observation_date" : "2003-10-18",
      "last_observation_date" : "2003-11-30",
      "data_arc_in_days" : 43,
      "observations_used" : 35,
      "orbit_uncertainty" : "7",
      "minimum_orbit_intersection" : ".0283203",
      "jupiter_tisserand_invariant" : "3.755",
      "epoch_osculation" : "2458600.5",
      "eccentricity" : ".4723404507874736",
      "semi_major_axis" : "1.936515863408722",
      "inclination" : "6.548769680191377",
      "ascending_node_longitude" : "33.6455395761102",
      "orbital_period" : "984.3057345532875",
      "perihelion_distance" : "1.021821087529153",
      "perihelion_argument" : "353.4070727262867",
      "aphelion_distance" : "2.851210639288291",
      "perihelion_time" : "2458835.223878972375",
      "mean_anomaly" : "274.1520835816279",
      "mean_motion" : ".3657400209736466",
      "equinox" : "J2000",
      "orbit_class" : {
        "orbit_class_type" : "AMO",
        "orbit_class_range" : "1.017 AU < q (perihelion) < 1.3 AU",
        "orbit_class_description" : "Near-Earth asteroid orbits similar to that of 1221 Amor"
      }
    },
    "is_sentry_object" : false
  } ]
}